{"fetched_at":"2026-03-29T16:36:15Z","count":15609,"tles":[{"name":"STARLINK-4706","line1":"1 53779U 22111G   26087.76101971  .00000947  00000+0  77589-4 0  9992","line2":"2 53779  53.2173 188.6220 0001298  93.7542 266.3598 15.08841700196572","category":"Starlink"}]}